[{"OBJECT_NAME":"STARLINK-35762","OBJECT_ID":"2025-303K","EPOCH":"2026-03-09T23:08:54.457152","MEAN_MOTION":15.27601021,"ECCENTRICITY":6.381e-5,"INCLINATION":42.9981,"RA_OF_ASC_NODE":309.4666,"ARG_OF_PERICENTER":243.7066,"MEAN_ANOMALY":116.372,"EPHEMERIS_TYPE":0,"CLASSIFICATION_TYPE":"U","NORAD_CAT_ID":67172,"ELEMENT_SET_NO":999,"REV_AT_EPOCH":1277,"BSTAR":0.0012773401,"MEAN_MOTION_DOT":0.00035077,"MEAN_MOTION_DDOT":0},{"OBJECT_NAME":"SL-3 R\/B","OBJECT_ID":"1983-003B","EPOCH":"2026-03-09T21:31:00.897888","MEAN_MOTION":15.34640469,"ECCENTRICITY":0.00285789,"INCLINATION":81.155,"RA_OF_ASC_NODE":261.9078,"ARG_OF_PERICENTER":155.4571,"MEAN_ANOMALY":204.8036,"EPHEMERIS_TYPE":0,"CLASSIFICATION_TYPE":"U","NORAD_CAT_ID":13771,"ELEMENT_SET_NO":999,"REV_AT_EPOCH":35642,"BSTAR":0.00033440366,"MEAN_MOTION_DOT":0.00011405,"MEAN_MOTION_DDOT":0}]
